STARLINK-5550           
1 56361U 23058AW  25216.46253725  .00000132  00000+0  14843-4 0  9998
2 56361  97.6544 217.4663 0002057  53.2816 306.8597 15.01258516125545
STARLINK-5972           
1 56362U 23058AX  25216.46068228  .00000176  00000+0  18318-4 0  9990
2 56362  97.6545 217.4681 0000740 110.0979 250.0325 15.01259999125541
STARLINK-6156           
1 56374U 23061A   25216.58265365  .00000169  00000+0  27611-4 0  9999
2 56374  43.0042 297.3840 0001261 268.9945  91.0753 15.02531409125199
STARLINK-6158           
1 56375U 23061B   25216.24471827 -.00000758  00000+0 -41032-4 0  9994
2 56375  43.0034 299.1439 0000949 260.6753  99.3982 15.02527947124043
STARLINK-6188           
1 56376U 23061C   25216.55600812  .00000181  00000+0  28454-4 0  9998
2 56376  43.0038 297.1794 0001254 265.3848  94.6851 15.02537783124094
STARLINK-6189           
1 56377U 23061D   25216.57376790  .00000299  00000+0  37206-4 0  9991
2 56377  43.0037 297.3148 0001306 270.8389  89.2303 15.02535899124096
STARLINK-6191           
1 56378U 23061E   25216.24582005  .00000106  00000+0  22937-4 0  9996
2 56378  43.0038 299.1466 0000943 282.3944  77.6793 15.02537802124047
STARLINK-6157           
1 56379U 23061F   25216.23028422 -.00003516  00000+0 -24534-3 0  9998
2 56379  43.0043 299.0369 0001770 264.9600  95.1041 15.02536076125144
STARLINK-6159           
1 56381U 23061H   25216.30342082 -.00001679  00000+0 -10924-3 0  9996
2 56381  43.0045 298.7258 0001285 268.6887  91.3808 15.02541765124050
STARLINK-6160           
1 56382U 23061J   25216.29120726  .00000082  00000+0  21113-4 0  9992
2 56382  43.0047 298.6292 0001280 267.3638  92.7058 15.02537098124051
STARLINK-6166           
1 56383U 23061K   25216.55934276 -.00000781  00000+0 -42717-4 0  9996
2 56383  43.0040 297.2018 0001509 264.8928  95.1742 15.02536332124095
STARLINK-6153           
1 56384U 23061L   25216.28344024 -.00000448  00000+0 -18106-4 0  9998
2 56384  43.0044 298.5703 0001461 263.3159  96.7517 15.02535907124052
STARLINK-6173           
1 56385U 23061M   25216.61916076 -.00000261  00000+0 -42200-5 0  9994
2 56385  43.0026 296.7941 0000964 281.0606  79.0128 15.02534346124102
STARLINK-5836           
1 56386U 23061N   25216.27677974 -.00000118  00000+0  63125-5 0  9997
2 56386  43.0046 298.5188 0001346 267.1800  92.8888 15.02538129124057
STARLINK-6178           
1 56387U 23061P   25216.53270409 -.00000275  00000+0 -53143-5 0  9993
2 56387  43.0038 297.0040 0001208 269.0771  90.9933 15.02536081124094
STARLINK-6176           
1 56388U 23061Q   25216.24026028  .00001371  00000+0  11651-3 0  9990
2 56388  43.0050 299.0980 0001561 281.1557  78.9110 15.02540236124048
STARLINK-6145           
1 56389U 23061R   25216.54602256  .00000421  00000+0  46213-4 0  9995
2 56389  43.0048 297.0992 0001537 267.9172  92.1494 15.02534456124090
