[{"OBJECT_NAME":"STARLINK-5550","OBJECT_ID":"2023-058AW","EPOCH":"2025-08-04T11:06:03.218400","MEAN_MOTION":15.01258516,"ECCENTRICITY":0.0002057,"INCLINATION":97.6544,"RA_OF_ASC_NODE":217.4663,"ARG_OF_PERICENTER":53.2816,"MEAN_ANOMALY":306.8597,"EPHEMERIS_TYPE":0,"CLASSIFICATION_TYPE":"U","NORAD_CAT_ID":56361,"ELEMENT_SET_NO":999,"REV_AT_EPOCH":12554,"BSTAR":1.4843e-5,"MEAN_MOTION_DOT":1.32e-6,"MEAN_MOTION_DDOT":0},{"OBJECT_NAME":"STARLINK-5972","OBJECT_ID":"2023-058AX","EPOCH":"2025-08-04T11:03:22.948992","MEAN_MOTION":15.01259999,"ECCENTRICITY":7.4e-5,"INCLINATION":97.6545,"RA_OF_ASC_NODE":217.4681,"ARG_OF_PERICENTER":110.0979,"MEAN_ANOMALY":250.0325,"EPHEMERIS_TYPE":0,"CLASSIFICATION_TYPE":"U","NORAD_CAT_ID":56362,"ELEMENT_SET_NO":999,"REV_AT_EPOCH":12554,"BSTAR":1.8318e-5,"MEAN_MOTION_DOT":1.76e-6,"MEAN_MOTION_DDOT":0},{"OBJECT_NAME":"STARLINK-6156","OBJECT_ID":"2023-061A","EPOCH":"2025-08-04T13:59:01.275360","MEAN_MOTION":15.02531409,"ECCENTRICITY":0.0001261,"INCLINATION":43.0042,"RA_OF_ASC_NODE":297.384,"ARG_OF_PERICENTER":268.9945,"MEAN_ANOMALY":91.0753,"EPHEMERIS_TYPE":0,"CLASSIFICATION_TYPE":"U","NORAD_CAT_ID":56374,"ELEMENT_SET_NO":999,"REV_AT_EPOCH":12519,"BSTAR":2.7611e-5,"MEAN_MOTION_DOT":1.69e-6,"MEAN_MOTION_DDOT":0},{"OBJECT_NAME":"STARLINK-6158","OBJECT_ID":"2023-061B","EPOCH":"2025-08-04T05:52:23.658528","MEAN_MOTION":15.02527947,"ECCENTRICITY":9.49e-5,"INCLINATION":43.0034,"RA_OF_ASC_NODE":299.1439,"ARG_OF_PERICENTER":260.6753,"MEAN_ANOMALY":99.3982,"EPHEMERIS_TYPE":0,"CLASSIFICATION_TYPE":"U","NORAD_CAT_ID":56375,"ELEMENT_SET_NO":999,"REV_AT_EPOCH":12404,"BSTAR":-4.1032e-5,"MEAN_MOTION_DOT":-7.58e-6,"MEAN_MOTION_DDOT":0},{"OBJECT_NAME":"STARLINK-6188","OBJECT_ID":"2023-061C","EPOCH":"2025-08-04T13:20:39.101568","MEAN_MOTION":15.02537783,"ECCENTRICITY":0.0001254,"INCLINATION":43.0038,"RA_OF_ASC_NODE":297.1794,"ARG_OF_PERICENTER":265.3848,"MEAN_ANOMALY":94.6851,"EPHEMERIS_TYPE":0,"CLASSIFICATION_TYPE":"U","NORAD_CAT_ID":56376,"ELEMENT_SET_NO":999,"REV_AT_EPOCH":12409,"BSTAR":2.8454e-5,"MEAN_MOTION_DOT":1.81e-6,"MEAN_MOTION_DDOT":0},{"OBJECT_NAME":"STARLINK-6189","OBJECT_ID":"2023-061D","EPOCH":"2025-08-04T13:46:13.546560","MEAN_MOTION":15.02535899,"ECCENTRICITY":0.0001306,"INCLINATION":43.0037,"RA_OF_ASC_NODE":297.3148,"ARG_OF_PERICENTER":270.8389,"MEAN_ANOMALY":89.2303,"EPHEMERIS_TYPE":0,"CLASSIFICATION_TYPE":"U","NORAD_CAT_ID":56377,"ELEMENT_SET_NO":999,"REV_AT_EPOCH":12409,"BSTAR":3.7206e-5,"MEAN_MOTION_DOT":2.99e-6,"MEAN_MOTION_DDOT":0},{"OBJECT_NAME":"STARLINK-6191","OBJECT_ID":"2023-061E","EPOCH":"2025-08-04T05:53:58.852320","MEAN_MOTION":15.02537802,"ECCENTRICITY":9.43e-5,"INCLINATION":43.0038,"RA_OF_ASC_NODE":299.1466,"ARG_OF_PERICENTER":282.3944,"MEAN_ANOMALY":77.6793,"EPHEMERIS_TYPE":0,"CLASSIFICATION_TYPE":"U","NORAD_CAT_ID":56378,"ELEMENT_SET_NO":999,"REV_AT_EPOCH":12404,"BSTAR":2.2937e-5,"MEAN_MOTION_DOT":1.06e-6,"MEAN_MOTION_DDOT":0},{"OBJECT_NAME":"STARLINK-6157","OBJECT_ID":"2023-061F","EPOCH":"2025-08-04T05:31:36.556608","MEAN_MOTION":15.02536076,"ECCENTRICITY":0.000177,"INCLINATION":43.0043,"RA_OF_ASC_NODE":299.0369,"ARG_OF_PERICENTER":264.96,"MEAN_ANOMALY":95.1041,"EPHEMERIS_TYPE":0,"CLASSIFICATION_TYPE":"U","NORAD_CAT_ID":56379,"ELEMENT_SET_NO":999,"REV_AT_EPOCH":12514,"BSTAR":-0.00024534,"MEAN_MOTION_DOT":-3.516e-5,"MEAN_MOTION_DDOT":0},{"OBJECT_NAME":"STARLINK-6159","OBJECT_ID":"2023-061H","EPOCH":"2025-08-04T07:16:55.558848","MEAN_MOTION":15.02541765,"ECCENTRICITY":0.0001285,"INCLINATION":43.0045,"RA_OF_ASC_NODE":298.7258,"ARG_OF_PERICENTER":268.6887,"MEAN_ANOMALY":91.3808,"EPHEMERIS_TYPE":0,"CLASSIFICATION_TYPE":"U","NORAD_CAT_ID":56381,"ELEMENT_SET_NO":999,"REV_AT_EPOCH":12405,"BSTAR":-0.00010924,"MEAN_MOTION_DOT":-1.679e-5,"MEAN_MOTION_DDOT":0},{"OBJECT_NAME":"STARLINK-6160","OBJECT_ID":"2023-061J","EPOCH":"2025-08-04T06:59:20.307264","MEAN_MOTION":15.02537098,"ECCENTRICITY":0.000128,"INCLINATION":43.0047,"RA_OF_ASC_NODE":298.6292,"ARG_OF_PERICENTER":267.3638,"MEAN_ANOMALY":92.7058,"EPHEMERIS_TYPE":0,"CLASSIFICATION_TYPE":"U","NORAD_CAT_ID":56382,"ELEMENT_SET_NO":999,"REV_AT_EPOCH":12405,"BSTAR":2.1113e-5,"MEAN_MOTION_DOT":8.2e-7,"MEAN_MOTION_DDOT":0},{"OBJECT_NAME":"STARLINK-6166","OBJECT_ID":"2023-061K","EPOCH":"2025-08-04T13:25:27.214464","MEAN_MOTION":15.02536332,"ECCENTRICITY":0.0001509,"INCLINATION":43.004,"RA_OF_ASC_NODE":297.2018,"ARG_OF_PERICENTER":264.8928,"MEAN_ANOMALY":95.1742,"EPHEMERIS_TYPE":0,"CLASSIFICATION_TYPE":"U","NORAD_CAT_ID":56383,"ELEMENT_SET_NO":999,"REV_AT_EPOCH":12409,"BSTAR":-4.2717e-5,"MEAN_MOTION_DOT":-7.81e-6,"MEAN_MOTION_DDOT":0},{"OBJECT_NAME":"STARLINK-6153","OBJECT_ID":"2023-061L","EPOCH":"2025-08-04T06:48:09.236736","MEAN_MOTION":15.02535907,"ECCENTRICITY":0.0001461,"INCLINATION":43.0044,"RA_OF_ASC_NODE":298.5703,"ARG_OF_PERICENTER":263.3159,"MEAN_ANOMALY":96.7517,"EPHEMERIS_TYPE":0,"CLASSIFICATION_TYPE":"U","NORAD_CAT_ID":56384,"ELEMENT_SET_NO":999,"REV_AT_EPOCH":12405,"BSTAR":-1.8106e-5,"MEAN_MOTION_DOT":-4.48e-6,"MEAN_MOTION_DDOT":0},{"OBJECT_NAME":"STARLINK-6173","OBJECT_ID":"2023-061M","EPOCH":"2025-08-04T14:51:35.489664","MEAN_MOTION":15.02534346,"ECCENTRICITY":9.64e-5,"INCLINATION":43.0026,"RA_OF_ASC_NODE":296.7941,"ARG_OF_PERICENTER":281.0606,"MEAN_ANOMALY":79.0128,"EPHEMERIS_TYPE":0,"CLASSIFICATION_TYPE":"U","NORAD_CAT_ID":56385,"ELEMENT_SET_NO":999,"REV_AT_EPOCH":12410,"BSTAR":-4.22e-6,"MEAN_MOTION_DOT":-2.61e-6,"MEAN_MOTION_DDOT":0},{"OBJECT_NAME":"STARLINK-5836","OBJECT_ID":"2023-061N","EPOCH":"2025-08-04T06:38:33.769536","MEAN_MOTION":15.02538129,"ECCENTRICITY":0.0001346,"INCLINATION":43.0046,"RA_OF_ASC_NODE":298.5188,"ARG_OF_PERICENTER":267.18,"MEAN_ANOMALY":92.8888,"EPHEMERIS_TYPE":0,"CLASSIFICATION_TYPE":"U","NORAD_CAT_ID":56386,"ELEMENT_SET_NO":999,"REV_AT_EPOCH":12405,"BSTAR":6.3125e-6,"MEAN_MOTION_DOT":-1.18e-6,"MEAN_MOTION_DDOT":0},{"OBJECT_NAME":"STARLINK-6178","OBJECT_ID":"2023-061P","EPOCH":"2025-08-04T12:47:05.633376","MEAN_MOTION":15.02536081,"ECCENTRICITY":0.0001208,"INCLINATION":43.0038,"RA_OF_ASC_NODE":297.004,"ARG_OF_PERICENTER":269.0771,"MEAN_ANOMALY":90.9933,"EPHEMERIS_TYPE":0,"CLASSIFICATION_TYPE":"U","NORAD_CAT_ID":56387,"ELEMENT_SET_NO":999,"REV_AT_EPOCH":12409,"BSTAR":-5.3143e-6,"MEAN_MOTION_DOT":-2.75e-6,"MEAN_MOTION_DDOT":0},{"OBJECT_NAME":"STARLINK-6176","OBJECT_ID":"2023-061Q","EPOCH":"2025-08-04T05:45:58.488192","MEAN_MOTION":15.02540236,"ECCENTRICITY":0.0001561,"INCLINATION":43.005,"RA_OF_ASC_NODE":299.098,"ARG_OF_PERICENTER":281.1557,"MEAN_ANOMALY":78.911,"EPHEMERIS_TYPE":0,"CLASSIFICATION_TYPE":"U","NORAD_CAT_ID":56388,"ELEMENT_SET_NO":999,"REV_AT_EPOCH":12404,"BSTAR":0.00011651,"MEAN_MOTION_DOT":1.371e-5,"MEAN_MOTION_DDOT":0},{"OBJECT_NAME":"STARLINK-6145","OBJECT_ID":"2023-061R","EPOCH":"2025-08-04T13:06:16.349184","MEAN_MOTION":15.02534456,"ECCENTRICITY":0.0001537,"INCLINATION":43.0048,"RA_OF_ASC_NODE":297.0992,"ARG_OF_PERICENTER":267.9172,"MEAN_ANOMALY":92.1494,"EPHEMERIS_TYPE":0,"CLASSIFICATION_TYPE":"U","NORAD_CAT_ID":56389,"ELEMENT_SET_NO":999,"REV_AT_EPOCH":12409,"BSTAR":4.6213e-5,"MEAN_MOTION_DOT":4.21e-6,"MEAN_MOTION_DDOT":0}]
